TIANMU-1 21             
1 58662U 23208C   26198.09749550  .00005503  00000+0  16146-3 0  9990
2 58662  97.4535 318.0411 0006874 197.1341 162.9672 15.35573380142157
TIANMU-1 22             
1 58663U 23208D   26198.19803519  .00004009  00000+0  13462-3 0  9996
2 58663  97.4527 314.5737 0002933 209.3049 150.8028 15.31443424141920
TIANMU-1 15             
1 58700U 24004A   26198.17879029  .00002933  00000+0  11374-3 0  9994
2 58700  97.4670  24.3695 0006202 220.1296 139.9485 15.26925763140354
TIANMU-1 16             
1 58701U 24004B   26198.16812231  .00002808  00000+0  10870-3 0  9997
2 58701  97.4618  23.5743 0004554 236.1874 123.8931 15.27028791140353
TIANMU-1 17             
1 58702U 24004C   26198.21913630  .00002864  00000+0  11082-3 0  9997
2 58702  97.4645  24.1212 0004003 242.2654 117.8179 15.27026955140352
TIANMU-1 18             
1 58703U 24004D   26198.19533703  .00002684  00000+0  10430-3 0  9990
2 58703  97.4662  24.3603 0003918 215.7818 144.3159 15.26941320140353
INSAT-3DS               
1 58990U 24033A   26198.07030190 -.00000166  00000+0  00000+0 0  9991
2 58990   0.0858 264.4241 0001132 223.4331 274.4077  1.00270809 47360
METEOR-M2 4             
1 59051U 24039A   26198.14910182 -.00000008  00000+0  15948-4 0  9999
2 59051  98.7027 157.0733 0008260  83.9390 276.2729 14.22432278123522
GOES 19                 
1 60133U 24119A   26198.09159012 -.00000258  00000+0  00000+0 0  9997
2 60133   0.0135 131.6797 0000401  71.2404  49.7667  1.00271035  7264
MTG-S1                  
1 64723U 25143A   26198.10947382 -.00000017  00000+0  00000+0 0  9994
2 64723   0.5835 345.5641 0003384 260.2149  88.1724  1.00274096  3715
METOP-SGA1              
1 65159U 25172A   26195.76442858  .00000019  00000+0  29163-4 0  9994
2 65159  98.6631 254.9090 0007098 333.3306  26.7504 14.19819127 47700
FENGYUN 3H              
1 65815U 25219A   26197.84821601  .00000005  00000+0  22614-4 0  9992
2 65815  98.6770 138.0415 0001103  62.3311 297.7978 14.19924936 41593
