OBJECT_NAME,OBJECT_ID,EPOCH,MEAN_MOTION,ECCENTRICITY,INCLINATION,RA_OF_ASC_NODE,ARG_OF_PERICENTER,MEAN_ANOMALY,EPHEMERIS_TYPE,CLASSIFICATION_TYPE,NORAD_CAT_ID,ELEMENT_SET_NO,REV_AT_EPOCH,BSTAR,MEAN_MOTION_DOT,MEAN_MOTION_DDOT
TIANMU-1 21,2023-208C,2026-07-17T02:20:23.611200,15.35573380,.0006874,97.4535,318.0411,197.1341,162.9672,0,U,58662,999,14215,.16146E-3,.5503E-4,0
TIANMU-1 22,2023-208D,2026-07-17T04:45:10.240416,15.31443424,.0002933,97.4527,314.5737,209.3049,150.8028,0,U,58663,999,14192,.13462E-3,.4009E-4,0
TIANMU-1 15,2024-004A,2026-07-17T04:17:27.481056,15.26925763,.0006202,97.4670,24.3695,220.1296,139.9485,0,U,58700,999,14035,.11374E-3,.2933E-4,0
TIANMU-1 16,2024-004B,2026-07-17T04:02:05.767584,15.27028791,.0004554,97.4618,23.5743,236.1874,123.8931,0,U,58701,999,14035,.1087E-3,.2808E-4,0
TIANMU-1 17,2024-004C,2026-07-17T05:15:33.376320,15.27026955,.0004003,97.4645,24.1212,242.2654,117.8179,0,U,58702,999,14035,.11082E-3,.2864E-4,0
TIANMU-1 18,2024-004D,2026-07-17T04:41:17.119392,15.26941320,.0003918,97.4662,24.3603,215.7818,144.3159,0,U,58703,999,14035,.1043E-3,.2684E-4,0
INSAT-3DS,2024-033A,2026-07-17T01:41:14.084160,1.00270809,.0001132,0.0858,264.4241,223.4331,274.4077,0,U,58990,999,4736,0,-.166E-5,0
METEOR-M2 4,2024-039A,2026-07-17T03:34:42.397248,14.22432278,.000826,98.7027,157.0733,83.9390,276.2729,0,U,59051,999,12352,.15948E-4,-.8E-7,0
GOES 19,2024-119A,2026-07-17T02:11:53.386368,1.00271035,.0000401,0.0135,131.6797,71.2404,49.7667,0,U,60133,999,726,0,-.258E-5,0
MTG-S1,2025-143A,2026-07-17T02:37:38.538048,1.00274096,.0003384,0.5835,345.5641,260.2149,88.1724,0,U,64723,999,371,0,-.17E-6,0
METOP-SGA1,2025-172A,2026-07-14T18:20:46.629312,14.19819127,.00070989,98.6631,254.9090,333.3306,26.7504,0,U,65159,999,4770,.2916334E-4,.19E-6,0
FENGYUN 3H,2025-219A,2026-07-16T20:21:25.863264,14.19924936,.0001103,98.6770,138.0415,62.3311,297.7978,0,U,65815,999,4159,.22614E-4,.5E-7,0
